GIOVE-A                 
1 28922U 05051A   08218.01896442  .00000018  00000-0  10000-3 0  3781
2 28922  56.0567 165.6983 0008954 325.1319  34.7705  1.70188457 16185
GIOVE-B                 
1 32781U 08020A   08219.25274154  .00000051  00000-0  10000-3 0   509
2 32781  55.9762 200.6824 0024560 224.9510 134.8206  1.70898963  1746
